CCSDS_OMM_VERS = 2.0
CREATION_DATE  = 
ORIGINATOR     = 

OBJECT_NAME    = HTV-X1
OBJECT_ID      = 2025-241A
CENTER_NAME    = EARTH
REF_FRAME      = TEME
TIME_SYSTEM    = UTC
MEAN_ELEMENT_THEORY = SGP/SGP4

EPOCH          = 2026-03-14T08:15:41.718240
MEAN_MOTION    = 15.22910005
ECCENTRICITY   = .00057324
INCLINATION    = 51.6357
RA_OF_ASC_NODE = 50.7100
ARG_OF_PERICENTER = 187.3443
MEAN_ANOMALY   = 172.7451

EPHEMERIS_TYPE = 0
CLASSIFICATION_TYPE = U
NORAD_CAT_ID   = 66174
ELEMENT_SET_NO = 999
REV_AT_EPOCH   = 2166
BSTAR          = .5679389E-3
MEAN_MOTION_DOT = .13198E-3
MEAN_MOTION_DDOT = 0

CCSDS_OMM_VERS = 2.0
CREATION_DATE  = 
ORIGINATOR     = 

OBJECT_NAME    = SZ-21 MODULE
OBJECT_ID      = 2025-246C
CENTER_NAME    = EARTH
REF_FRAME      = TEME
TIME_SYSTEM    = UTC
MEAN_ELEMENT_THEORY = SGP/SGP4

EPOCH          = 2026-03-20T04:39:31.036608
MEAN_MOTION    = 15.69318212
ECCENTRICITY   = .00003768
INCLINATION    = 41.4734
RA_OF_ASC_NODE = 138.6579
ARG_OF_PERICENTER = 257.1443
MEAN_ANOMALY   = 102.9357

EPHEMERIS_TYPE = 0
CLASSIFICATION_TYPE = U
NORAD_CAT_ID   = 66515
ELEMENT_SET_NO = 999
REV_AT_EPOCH   = 1972
BSTAR          = .21817617E-3
MEAN_MOTION_DOT = .26007E-3
MEAN_MOTION_DDOT = 0

CCSDS_OMM_VERS = 2.0
CREATION_DATE  = 
ORIGINATOR     = 

OBJECT_NAME    = SHENZHOU-22
OBJECT_ID      = 2025-272A
CENTER_NAME    = EARTH
REF_FRAME      = TEME
TIME_SYSTEM    = UTC
MEAN_ELEMENT_THEORY = SGP/SGP4

EPOCH          = 2026-03-20T01:55:42.718656
MEAN_MOTION    = 15.61198196
ECCENTRICITY   = .00057234
INCLINATION    = 41.4665
RA_OF_ASC_NODE = 144.9122
ARG_OF_PERICENTER = 338.4006
MEAN_ANOMALY   = 21.6591

EPHEMERIS_TYPE = 0
CLASSIFICATION_TYPE = U
NORAD_CAT_ID   = 66645
ELEMENT_SET_NO = 999
REV_AT_EPOCH   = 27910
BSTAR          = .25017953E-3
MEAN_MOTION_DOT = .21521E-3
MEAN_MOTION_DDOT = 0

CCSDS_OMM_VERS = 2.0
CREATION_DATE  = 
ORIGINATOR     = 

OBJECT_NAME    = SOYUZ-MS 28
OBJECT_ID      = 2025-275A
CENTER_NAME    = EARTH
REF_FRAME      = TEME
TIME_SYSTEM    = UTC
MEAN_ELEMENT_THEORY = SGP/SGP4

EPOCH          = 2026-03-20T03:53:37.593024
MEAN_MOTION    = 15.48388697
ECCENTRICITY   = .00062344
INCLINATION    = 51.6345
RA_OF_ASC_NODE = 20.5881
ARG_OF_PERICENTER = 211.0869
MEAN_ANOMALY   = 148.9751

EPHEMERIS_TYPE = 0
CLASSIFICATION_TYPE = U
NORAD_CAT_ID   = 66664
ELEMENT_SET_NO = 999
REV_AT_EPOCH   = 55771
BSTAR          = .16519966E-3
MEAN_MOTION_DOT = .8474E-4
MEAN_MOTION_DDOT = 0

CCSDS_OMM_VERS = 2.0
CREATION_DATE  = 
ORIGINATOR     = 

OBJECT_NAME    = DUPLEX
OBJECT_ID      = 1998-067XS
CENTER_NAME    = EARTH
REF_FRAME      = TEME
TIME_SYSTEM    = UTC
MEAN_ELEMENT_THEORY = SGP/SGP4

EPOCH          = 2026-03-20T05:50:42.444384
MEAN_MOTION    = 15.56853092
ECCENTRICITY   = .00029779
INCLINATION    = 51.6306
RA_OF_ASC_NODE = 16.6351
ARG_OF_PERICENTER = 156.4039
MEAN_ANOMALY   = 203.7090

EPHEMERIS_TYPE = 0
CLASSIFICATION_TYPE = U
NORAD_CAT_ID   = 66906
ELEMENT_SET_NO = 999
REV_AT_EPOCH   = 1677
BSTAR          = .30375098E-3
MEAN_MOTION_DOT = .218E-3
MEAN_MOTION_DDOT = 0

CCSDS_OMM_VERS = 2.0
CREATION_DATE  = 
ORIGINATOR     = 

OBJECT_NAME    = ISS OBJECT XT
OBJECT_ID      = 1998-067XT
CENTER_NAME    = EARTH
REF_FRAME      = TEME
TIME_SYSTEM    = UTC
MEAN_ELEMENT_THEORY = SGP/SGP4

EPOCH          = 2026-03-20T04:56:04.147584
MEAN_MOTION    = 15.72675756
ECCENTRICITY   = .00052474
INCLINATION    = 51.6260
RA_OF_ASC_NODE = 11.8555
ARG_OF_PERICENTER = 148.6370
MEAN_ANOMALY   = 211.4942

EPHEMERIS_TYPE = 0
CLASSIFICATION_TYPE = U
NORAD_CAT_ID   = 66907
ELEMENT_SET_NO = 999
REV_AT_EPOCH   = 1683
BSTAR          = .9694761E-3
MEAN_MOTION_DOT = .1349E-2
MEAN_MOTION_DDOT = 0

CCSDS_OMM_VERS = 2.0
CREATION_DATE  = 
ORIGINATOR     = 

OBJECT_NAME    = ISS OBJECT XU
OBJECT_ID      = 1998-067XU
CENTER_NAME    = EARTH
REF_FRAME      = TEME
TIME_SYSTEM    = UTC
MEAN_ELEMENT_THEORY = SGP/SGP4

EPOCH          = 2026-03-20T04:52:09.475680
MEAN_MOTION    = 15.72809442
ECCENTRICITY   = .0005459
INCLINATION    = 51.6253
RA_OF_ASC_NODE = 11.8334
ARG_OF_PERICENTER = 148.3920
MEAN_ANOMALY   = 211.7407

EPHEMERIS_TYPE = 0
CLASSIFICATION_TYPE = U
NORAD_CAT_ID   = 66908
ELEMENT_SET_NO = 999
REV_AT_EPOCH   = 1683
BSTAR          = .94883199E-3
MEAN_MOTION_DOT = .132745E-2
MEAN_MOTION_DDOT = 0

CCSDS_OMM_VERS = 2.0
CREATION_DATE  = 
ORIGINATOR     = 

OBJECT_NAME    = SILVERSAT
OBJECT_ID      = 1998-067XV
CENTER_NAME    = EARTH
REF_FRAME      = TEME
TIME_SYSTEM    = UTC
MEAN_ELEMENT_THEORY = SGP/SGP4

EPOCH          = 2026-03-20T04:21:22.683456
MEAN_MOTION    = 15.76718316
ECCENTRICITY   = .00058723
INCLINATION    = 51.6236
RA_OF_ASC_NODE = 10.9348
ARG_OF_PERICENTER = 151.9613
MEAN_ANOMALY   = 208.1704

EPHEMERIS_TYPE = 0
CLASSIFICATION_TYPE = U
NORAD_CAT_ID   = 66909
ELEMENT_SET_NO = 999
REV_AT_EPOCH   = 1684
BSTAR          = .10695302E-2
MEAN_MOTION_DOT = .178475E-2
MEAN_MOTION_DDOT = 0

CCSDS_OMM_VERS = 2.0
CREATION_DATE  = 
ORIGINATOR     = 

OBJECT_NAME    = ISS OBJECT XW
OBJECT_ID      = 1998-067XW
CENTER_NAME    = EARTH
REF_FRAME      = TEME
TIME_SYSTEM    = UTC
MEAN_ELEMENT_THEORY = SGP/SGP4

EPOCH          = 2026-03-20T04:56:42.861696
MEAN_MOTION    = 15.71670531
ECCENTRICITY   = .00058073
INCLINATION    = 51.6255
RA_OF_ASC_NODE = 11.8505
ARG_OF_PERICENTER = 150.0745
MEAN_ANOMALY   = 210.0586

EPHEMERIS_TYPE = 0
CLASSIFICATION_TYPE = U
NORAD_CAT_ID   = 66910
ELEMENT_SET_NO = 999
REV_AT_EPOCH   = 1683
BSTAR          = .89058785E-3
MEAN_MOTION_DOT = .118472E-2
MEAN_MOTION_DDOT = 0

CCSDS_OMM_VERS = 2.0
CREATION_DATE  = 
ORIGINATOR     = 

OBJECT_NAME    = ISS OBJECT XX
OBJECT_ID      = 1998-067XX
CENTER_NAME    = EARTH
REF_FRAME      = TEME
TIME_SYSTEM    = UTC
MEAN_ELEMENT_THEORY = SGP/SGP4

EPOCH          = 2026-03-20T00:38:23.056800
MEAN_MOTION    = 15.81175637
ECCENTRICITY   = .00075405
INCLINATION    = 51.6213
RA_OF_ASC_NODE = 10.6240
ARG_OF_PERICENTER = 154.6748
MEAN_ANOMALY   = 205.4625

EPHEMERIS_TYPE = 0
CLASSIFICATION_TYPE = U
NORAD_CAT_ID   = 66911
ELEMENT_SET_NO = 999
REV_AT_EPOCH   = 1682
BSTAR          = .12858182E-2
MEAN_MOTION_DOT = .265567E-2
MEAN_MOTION_DDOT = 0

CCSDS_OMM_VERS = 2.0
CREATION_DATE  = 
ORIGINATOR     = 

OBJECT_NAME    = ISS OBJECT XY
OBJECT_ID      = 1998-067XY
CENTER_NAME    = EARTH
REF_FRAME      = TEME
TIME_SYSTEM    = UTC
MEAN_ELEMENT_THEORY = SGP/SGP4

EPOCH          = 2026-03-20T04:24:03.870432
MEAN_MOTION    = 15.65652756
ECCENTRICITY   = .00038345
INCLINATION    = 51.6283
RA_OF_ASC_NODE = 13.9735
ARG_OF_PERICENTER = 151.9435
MEAN_ANOMALY   = 208.1768

EPHEMERIS_TYPE = 0
CLASSIFICATION_TYPE = U
NORAD_CAT_ID   = 66912
ELEMENT_SET_NO = 999
REV_AT_EPOCH   = 1679
BSTAR          = .68564431E-3
MEAN_MOTION_DOT = .7058E-3
MEAN_MOTION_DDOT = 0

CCSDS_OMM_VERS = 2.0
CREATION_DATE  = 
ORIGINATOR     = 

OBJECT_NAME    = KNACKSAT-2
OBJECT_ID      = 1998-067XZ
CENTER_NAME    = EARTH
REF_FRAME      = TEME
TIME_SYSTEM    = UTC
MEAN_ELEMENT_THEORY = SGP/SGP4

EPOCH          = 2026-03-20T05:18:46.861344
MEAN_MOTION    = 15.52646122
ECCENTRICITY   = .00096943
INCLINATION    = 51.6326
RA_OF_ASC_NODE = 19.4857
ARG_OF_PERICENTER = 223.4143
MEAN_ANOMALY   = 136.6084

EPHEMERIS_TYPE = 0
CLASSIFICATION_TYPE = U
NORAD_CAT_ID   = 67683
ELEMENT_SET_NO = 999
REV_AT_EPOCH   = 642
BSTAR          = .45951319E-3
MEAN_MOTION_DOT = .28505E-3
MEAN_MOTION_DDOT = 0

